GSAT0101 (PRN E11)      
1 37846U 11060A   20246.38129801 -.00000073  00000-0  00000-0 0  9993
2 37846  56.6784  39.1710 0001645  42.5978 317.4161  1.70475538 55089
GSAT0102 (PRN E12)      
1 37847U 11060B   20244.54168167 -.00000073  00000-0  00000+0 0  9997
2 37847  56.6784  39.2207 0001822 328.3179  28.7911  1.70475594 55174
GSAT0103 (PRN E19)      
1 38857U 12055A   20245.83669830 -.00000024  00000-0  00000-0 0  9997
2 38857  54.9888 159.6800 0003086 273.6932  86.2875  1.70473909 49114
GSAT0104 (PRN E20)      
1 38858U 12055B   20245.77107862 -.00000024  00000-0  00000+0 0  9992
2 38858  54.9895 159.6812 0002030 287.9815  72.0118  1.70473866 49061
GSAT0201 (PRN E18)      
1 40128U 14050A   20246.47837528 -.00000119  00000-0  00000-0 0  9995
2 40128  50.5582 358.3019 1660789 101.9070 277.1090  1.85519525 39139
GSAT0202 (PRN E14)      
1 40129U 14050B   20246.74181510 -.00000118  00000-0  00000-0 0  9998
2 40129  50.5938 357.3307 1658559 102.7331 276.2319  1.85520149 41271
GSAT0203 (PRN E26)      
1 40544U 15017A   20246.74895555 -.00000072  00000-0  00000-0 0  9993
2 40544  56.4719  39.2841 0002802 216.0424 143.9397  1.70475121 33177
GSAT0204 (PRN E22)      
1 40545U 15017B   20245.94343281 -.00000073  00000-0  00000+0 0  9999
2 40545  56.4781  39.3224 0003040 164.4886 195.5233  1.70475321 33822
GSAT0205 (PRN E24)      
1 40889U 15045A   20246.18582348  .00000006  00000-0  00000-0 0  9993
2 40889  56.0934 279.9881 0002955 333.3686  26.6873  1.70475344 30971
GSAT0206 (PRN E30)      
1 40890U 15045B   20245.81880386  .00000007  00000-0  00000+0 0  9997
2 40890  56.0929 279.9947 0002399 295.9322  64.1155  1.70475294 30998
GSAT0209 (PRN E09)      
1 41174U 15079A   20244.81865469 -.00000031  00000-0  00000-0 0  9993
2 41174  55.0035 159.4063 0004631 318.7401  41.2339  1.70472929 28882
GSAT0208 (PRN E08)      
1 41175U 15079B   20246.79817853 -.00000017  00000-0  00000+0 0  9990
2 41175  55.0021 159.3512 0003774 321.9167  38.0811  1.70472987 29332
GSAT0211 (PRN E02)      
1 41549U 16030A   20245.74663727  .00000008  00000-0  00000-0 0  9996
2 41549  56.2359 279.8611 0004375 286.5925  73.4322  1.70475102 26629
GSAT0210 (PRN E01)      
1 41550U 16030B   20246.03952675  .00000007  00000-0  00000+0 0  9992
2 41550  56.2360 279.8545 0004690 261.6582  98.3602  1.70475166 26607
GSAT0207 (PRN E07)      
1 41859U 16069A   20246.28469659 -.00000021  00000-0  00000+0 0  9995
2 41859  54.6622 159.7095 0004263 306.6100  53.3701  1.70472878 23593
GSAT0212 (PRN E03)      
1 41860U 16069B   20246.72473273 -.00000018  00000-0  00000-0 0  9990
2 41860  54.6596 159.6961 0003604 331.7074  28.2959  1.70472895 23622
GSAT0213 (PRN E04)      
1 41861U 16069C   20245.91733725 -.00000024  00000-0  00000+0 0  9998
2 41861  54.6619 159.7225 0003359 284.1464  75.8326  1.70473077 23612
GSAT0214 (PRN E05)      
1 41862U 16069D   20246.06437097 -.00000023  00000-0  00000+0 0  9998
2 41862  54.6604 159.7137 0002652 293.7366  66.2531  1.70473015 23604
GSAT0215 (PRN E21)      
1 43055U 17079A   20245.96772842  .00000007  00000-0  00000+0 0  9995
2 43055  56.2101 279.6975 0004136 256.0790 103.9466  1.70474255 16946
GSAT0216 (PRN E25)      
1 43056U 17079B   20246.26043359  .00000007  00000-0  00000+0 0  9994
2 43056  56.2101 279.6891 0005930 262.0748  97.9283  1.70474348 16938
GSAT0217 (PRN E27)      
1 43057U 17079C   20247.06707522  .00000006  00000-0  00000+0 0  9992
2 43057  56.2075 279.6675 0005284 270.0584  89.9479  1.70474398 16964
GSAT0218 (PRN E31)      
1 43058U 17079D   20244.94074914  .00000010  00000-0  00000+0 0  9994
2 43058  56.2095 279.7231 0006413 259.7345 100.2683  1.70474287 16927
GSAT0221 (PRN E15)      
1 43564U 18060A   20246.01350973 -.00000073  00000-0  00000-0 0  9990
2 43564  56.8584  38.9516 0002693 248.4784 111.4944  1.70476128 13126
GSAT0222 (PRN E33)      
1 43565U 18060B   20246.23336144 -.00000073  00000-0  00000-0 0  9999
2 43565  56.8609  38.9452 0002192 259.2144 100.7620  1.70476153 13173
GSAT0219 (PRN E36)      
1 43566U 18060C   20246.45367799 -.00000072  00000-0  00000-0 0  9993
2 43566  56.8614  38.9408 0002082 246.1510 113.8280  1.70476026 13155
GSAT0220 (PRN E13)      
1 43567U 18060D   20246.08697948 -.00000073  00000-0  00000+0 0  9995
2 43567  56.8611  38.9508 0002051 248.0918 111.8878  1.70476080 13121
